[
    {
        "OBJECT_NAME": "ARIANE 5 R/B",
        "OBJECT_ID": "2004-049H",
        "EPOCH": "2026-06-13T11:49:37.966656",
        "MEAN_MOTION": 14.85444692,
        "ECCENTRICITY": 0.00847405,
        "INCLINATION": 98.2718,
        "RA_OF_ASC_NODE": 336.6032,
        "ARG_OF_PERICENTER": 41.3034,
        "MEAN_ANOMALY": 319.4547,
        "EPHEMERIS_TYPE": 0,
        "CLASSIFICATION_TYPE": "U",
        "NORAD_CAT_ID": 28499,
        "ELEMENT_SET_NO": 999,
        "REV_AT_EPOCH": 16001,
        "BSTAR": 7.6186918e-05,
        "MEAN_MOTION_DOT": 6.36e-06,
        "MEAN_MOTION_DDOT": 0
    },
    {
        "OBJECT_NAME": "CZ-2D R/B",
        "OBJECT_ID": "2005-024B",
        "EPOCH": "2026-06-13T18:37:41.846592",
        "MEAN_MOTION": 15.69205166,
        "ECCENTRICITY": 0.0003944,
        "INCLINATION": 97.348,
        "RA_OF_ASC_NODE": 184.0345,
        "ARG_OF_PERICENTER": 61.3397,
        "MEAN_ANOMALY": 298.8261,
        "EPHEMERIS_TYPE": 0,
        "CLASSIFICATION_TYPE": "U",
        "NORAD_CAT_ID": 28738,
        "ELEMENT_SET_NO": 999,
        "REV_AT_EPOCH": 15480,
        "BSTAR": 0.00051121,
        "MEAN_MOTION_DOT": 0.00059585,
        "MEAN_MOTION_DDOT": 0
    },
    {
        "OBJECT_NAME": "ALOS (DAICHI)",
        "OBJECT_ID": "2006-002A",
        "EPOCH": "2026-06-13T21:23:39.263424",
        "MEAN_MOTION": 14.70044396,
        "ECCENTRICITY": 0.0001578,
        "INCLINATION": 98.1323,
        "RA_OF_ASC_NODE": 120.4691,
        "ARG_OF_PERICENTER": 58.4799,
        "MEAN_ANOMALY": 301.656,
        "EPHEMERIS_TYPE": 0,
        "CLASSIFICATION_TYPE": "U",
        "NORAD_CAT_ID": 28931,
        "ELEMENT_SET_NO": 999,
        "REV_AT_EPOCH": 8761,
        "BSTAR": 0.00017225,
        "MEAN_MOTION_DOT": 9.84e-06,
        "MEAN_MOTION_DDOT": 0
    },
    {
        "OBJECT_NAME": "H-2A R/B",
        "OBJECT_ID": "2006-002B",
        "EPOCH": "2026-06-13T16:37:41.903040",
        "MEAN_MOTION": 15.18021573,
        "ECCENTRICITY": 0.0049573,
        "INCLINATION": 98.2553,
        "RA_OF_ASC_NODE": 320.2061,
        "ARG_OF_PERICENTER": 274.5379,
        "MEAN_ANOMALY": 85.019,
        "EPHEMERIS_TYPE": 0,
        "CLASSIFICATION_TYPE": "U",
        "NORAD_CAT_ID": 28932,
        "ELEMENT_SET_NO": 999,
        "REV_AT_EPOCH": 10899,
        "BSTAR": 0.00033755,
        "MEAN_MOTION_DOT": 7.007e-05,
        "MEAN_MOTION_DDOT": 0
    },
    {
        "OBJECT_NAME": "RESURS-DK 1",
        "OBJECT_ID": "2006-021A",
        "EPOCH": "2026-06-13T20:41:50.908992",
        "MEAN_MOTION": 15.13205333,
        "ECCENTRICITY": 0.0006801,
        "INCLINATION": 69.9339,
        "RA_OF_ASC_NODE": 348.1592,
        "ARG_OF_PERICENTER": 294.2665,
        "MEAN_ANOMALY": 65.779,
        "EPHEMERIS_TYPE": 0,
        "CLASSIFICATION_TYPE": "U",
        "NORAD_CAT_ID": 29228,
        "ELEMENT_SET_NO": 999,
        "REV_AT_EPOCH": 10207,
        "BSTAR": 0.00015203,
        "MEAN_MOTION_DOT": 2.599e-05,
        "MEAN_MOTION_DDOT": 0
    },
    {
        "OBJECT_NAME": "CZ-4B R/B",
        "OBJECT_ID": "2006-046C",
        "EPOCH": "2026-06-13T16:37:33.772800",
        "MEAN_MOTION": 15.17760414,
        "ECCENTRICITY": 0.0031087,
        "INCLINATION": 97.5456,
        "RA_OF_ASC_NODE": 209.3104,
        "ARG_OF_PERICENTER": 295.5237,
        "MEAN_ANOMALY": 64.2782,
        "EPHEMERIS_TYPE": 0,
        "CLASSIFICATION_TYPE": "U",
        "NORAD_CAT_ID": 29507,
        "ELEMENT_SET_NO": 999,
        "REV_AT_EPOCH": 7460,
        "BSTAR": 0.00019611,
        "MEAN_MOTION_DOT": 3.937e-05,
        "MEAN_MOTION_DDOT": 0
    },
    {
        "OBJECT_NAME": "CZ-2C R/B",
        "OBJECT_ID": "2007-010B",
        "EPOCH": "2026-06-13T19:39:47.284128",
        "MEAN_MOTION": 14.20275532,
        "ECCENTRICITY": 0.005923,
        "INCLINATION": 98.4095,
        "RA_OF_ASC_NODE": 273.335,
        "ARG_OF_PERICENTER": 15.8998,
        "MEAN_ANOMALY": 344.4021,
        "EPHEMERIS_TYPE": 0,
        "CLASSIFICATION_TYPE": "U",
        "NORAD_CAT_ID": 31114,
        "ELEMENT_SET_NO": 999,
        "REV_AT_EPOCH": 99336,
        "BSTAR": 4.9953e-05,
        "MEAN_MOTION_DOT": 6.8e-07,
        "MEAN_MOTION_DDOT": 0
    },
    {
        "OBJECT_NAME": "COSMO-SKYMED 1",
        "OBJECT_ID": "2007-023A",
        "EPOCH": "2026-06-13T20:38:21.503040",
        "MEAN_MOTION": 14.97084981,
        "ECCENTRICITY": 0.000106,
        "INCLINATION": 97.8841,
        "RA_OF_ASC_NODE": 356.6882,
        "ARG_OF_PERICENTER": 95.6941,
        "MEAN_ANOMALY": 264.4401,
        "EPHEMERIS_TYPE": 0,
        "CLASSIFICATION_TYPE": "U",
        "NORAD_CAT_ID": 31598,
        "ELEMENT_SET_NO": 999,
        "REV_AT_EPOCH": 2929,
        "BSTAR": 0.0002292,
        "MEAN_MOTION_DOT": 2.583e-05,
        "MEAN_MOTION_DDOT": 0
    },
    {
        "OBJECT_NAME": "COSMOS 2428",
        "OBJECT_ID": "2007-029A",
        "EPOCH": "2026-06-13T19:35:26.395008",
        "MEAN_MOTION": 14.12928678,
        "ECCENTRICITY": 0.0007164,
        "INCLINATION": 70.937,
        "RA_OF_ASC_NODE": 1.5557,
        "ARG_OF_PERICENTER": 141.4459,
        "MEAN_ANOMALY": 218.7175,
        "EPHEMERIS_TYPE": 0,
        "CLASSIFICATION_TYPE": "U",
        "NORAD_CAT_ID": 31792,
        "ELEMENT_SET_NO": 999,
        "REV_AT_EPOCH": 97767,
        "BSTAR": -4.455e-05,
        "MEAN_MOTION_DOT": -1.31e-06,
        "MEAN_MOTION_DDOT": 0
    },
    {
        "OBJECT_NAME": "SL-16 R/B",
        "OBJECT_ID": "2007-029B",
        "EPOCH": "2026-06-13T20:47:03.293376",
        "MEAN_MOTION": 14.14853616,
        "ECCENTRICITY": 0.0002261,
        "INCLINATION": 70.9767,
        "RA_OF_ASC_NODE": 330.2101,
        "ARG_OF_PERICENTER": 261.1745,
        "MEAN_ANOMALY": 204.4372,
        "EPHEMERIS_TYPE": 0,
        "CLASSIFICATION_TYPE": "U",
        "NORAD_CAT_ID": 31793,
        "ELEMENT_SET_NO": 999,
        "REV_AT_EPOCH": 97897,
        "BSTAR": 0.0001454,
        "MEAN_MOTION_DOT": 2.33e-06,
        "MEAN_MOTION_DDOT": 0
    },
    {
        "OBJECT_NAME": "KORONAS-FOTON",
        "OBJECT_ID": "2009-003A",
        "EPOCH": "2026-06-13T20:11:53.075328",
        "MEAN_MOTION": 15.45665122,
        "ECCENTRICITY": 0.0011316,
        "INCLINATION": 82.4281,
        "RA_OF_ASC_NODE": 175.7493,
        "ARG_OF_PERICENTER": 158.4804,
        "MEAN_ANOMALY": 201.6922,
        "EPHEMERIS_TYPE": 0,
        "CLASSIFICATION_TYPE": "U",
        "NORAD_CAT_ID": 33504,
        "ELEMENT_SET_NO": 999,
        "REV_AT_EPOCH": 96058,
        "BSTAR": 0.00027038,
        "MEAN_MOTION_DOT": 0.00013109,
        "MEAN_MOTION_DDOT": 0
    },
    {
        "OBJECT_NAME": "CZ-2C R/B",
        "OBJECT_ID": "2011-030B",
        "EPOCH": "2026-06-13T20:45:51.145056",
        "MEAN_MOTION": 14.81464151,
        "ECCENTRICITY": 0.0053299,
        "INCLINATION": 97.8654,
        "RA_OF_ASC_NODE": 120.3113,
        "ARG_OF_PERICENTER": 38.6003,
        "MEAN_ANOMALY": 15.5015,
        "EPHEMERIS_TYPE": 0,
        "CLASSIFICATION_TYPE": "U",
        "NORAD_CAT_ID": 37731,
        "ELEMENT_SET_NO": 999,
        "REV_AT_EPOCH": 80433,
        "BSTAR": 0.00015885,
        "MEAN_MOTION_DOT": 1.22e-05,
        "MEAN_MOTION_DDOT": 0
    },
    {
        "OBJECT_NAME": "H-2A R/B",
        "OBJECT_ID": "2012-025E",
        "EPOCH": "2026-06-13T21:05:38.394240",
        "MEAN_MOTION": 14.95701928,
        "ECCENTRICITY": 0.0043861,
        "INCLINATION": 98.4822,
        "RA_OF_ASC_NODE": 139.7517,
        "ARG_OF_PERICENTER": 0.1706,
        "MEAN_ANOMALY": 359.952,
        "EPHEMERIS_TYPE": 0,
        "CLASSIFICATION_TYPE": "U",
        "NORAD_CAT_ID": 38341,
        "ELEMENT_SET_NO": 999,
        "REV_AT_EPOCH": 76259,
        "BSTAR": 0.00030933,
        "MEAN_MOTION_DOT": 3.44e-05,
        "MEAN_MOTION_DDOT": 0
    }
]